[{"OBJECT_NAME":"STARLINK-5172","OBJECT_ID":"2022-136P","EPOCH":"2026-03-09T21:31:29.648352","MEAN_MOTION":15.08840913,"ECCENTRICITY":0.00013338,"INCLINATION":53.2183,"RA_OF_ASC_NODE":298.3734,"ARG_OF_PERICENTER":85.9919,"MEAN_ANOMALY":274.1226,"EPHEMERIS_TYPE":0,"CLASSIFICATION_TYPE":"U","NORAD_CAT_ID":54064,"ELEMENT_SET_NO":999,"REV_AT_EPOCH":18750,"BSTAR":4.9761981e-5,"MEAN_MOTION_DOT":5.04e-6,"MEAN_MOTION_DDOT":0},{"OBJECT_NAME":"OBJECT F","OBJECT_ID":"2025-292F","EPOCH":"2026-03-09T22:41:00.950496","MEAN_MOTION":15.06065121,"ECCENTRICITY":0.00151037,"INCLINATION":97.6416,"RA_OF_ASC_NODE":145.7425,"ARG_OF_PERICENTER":346.7214,"MEAN_ANOMALY":13.3613,"EPHEMERIS_TYPE":0,"CLASSIFICATION_TYPE":"U","NORAD_CAT_ID":66998,"ELEMENT_SET_NO":999,"REV_AT_EPOCH":1351,"BSTAR":0.00047210602,"MEAN_MOTION_DOT":6.85e-5,"MEAN_MOTION_DDOT":0}]
